FLOCK 4X-39             
1 51029U 22002AX  23290.98644297  .00023585  00000+0  75304-3 0  9992
2 51029  97.4226 359.4401 0008799 148.3678 211.8095 15.32444521 97626
FLOCK 4X-17             
1 51035U 22002BD  23291.46677680  .00021635  00000+0  69671-3 0  9999
2 51035  97.4269   0.0362 0006322 154.7936 205.3615 15.32206245 97684
FLOCK 4X-10             
1 51037U 22002BF  23291.17899641  .00021422  00000+0  68418-3 0  9994
2 51037  97.4280 359.9274 0007996 151.9598 208.2076 15.32460788 97630
FLOCK 4X-36             
1 51039U 22002BH  23291.12179146  .00024146  00000+0  77337-3 0  9998
2 51039  97.4267 359.8110 0007115 154.0319 206.1281 15.32352536 97639
FLOCK 4X-21             
1 51040U 22002BJ  23291.45070233  .00027124  00000+0  77678-3 0  9990
2 51040  97.4218   0.5083 0007587 142.7676 217.4095 15.35873915 97729
FLOCK 4X-31             
1 51041U 22002BK  23291.11709889  .00027298  00000+0  86372-3 0  9993
2 51041  97.4207 359.3407 0005853 146.1928 213.9688 15.32726001 97634
FLOCK 4X-34             
1 51042U 22002BL  23291.46300019  .00020517  00000+0  65764-3 0  9993
2 51042  97.4282   0.1430 0006744 158.1103 202.0428 15.32363159 97680
FLOCK 4X-6              
1 51043U 22002BM  23291.44531689  .00021172  00000+0  68091-3 0  9995
2 51043  97.4262   0.0150 0006686 153.4130 206.7455 15.32249569 97689
FLOCK 4X-28             
1 51045U 22002BP  23291.43858245  .00029381  00000+0  81772-3 0  9997
2 51045  97.4199   0.4892 0007984 126.9818 233.2158 15.36747642 97737
FLOCK 4X-19             
1 51046U 22002BQ  23291.45684142  .00037582  00000+0  81094-3 0  9992
2 51046  97.4211   2.7094 0004908 134.4177 225.7474 15.44450005 97861
FLOCK 4X-9              
1 51047U 22002BR  23291.12611068  .00020605  00000+0  66185-3 0  9996
2 51047  97.4268 359.7800 0007035 160.4772 199.6741 15.32292552 97637
FLOCK 4X-35             
1 51048U 22002BS  23291.43041022  .00018720  00000+0  59712-3 0  9991
2 51048  97.4195 359.5639 0006252 149.3632 210.7976 15.32541808 97687
FLOCK 4X-11             
1 51049U 22002BT  23291.13866710  .00030163  00000+0  87633-3 0  9996
2 51049  97.4201 359.8941 0007283 135.5384 224.6445 15.35402551 97679
FLOCK 4X-40             
1 51052U 22002BW  23291.45857799  .00020786  00000+0  66622-3 0  9997
2 51052  97.4214 359.6292 0006280 158.7130 201.4374 15.32365283 97688
FLOCK 4X-24             
1 51056U 22002CA  23291.46029372  .00021485  00000+0  68928-3 0  9998
2 51056  97.4216 359.6817 0006332 148.3019 211.8606 15.32327642 97686
FLOCK 4X-4              
1 51064U 22002CJ  23291.42457610  .00024333  00000+0  77348-3 0  9994
2 51064  97.4231 359.7659 0006862 149.3614 210.8030 15.32594649 97680
FLOCK 4X-7              
1 51065U 22002CK  23291.45094102  .00021695  00000+0  69516-3 0  9997
2 51065  97.4248 359.9646 0006799 155.5327 204.6239 15.32362994 97684
FLOCK 4X-14             
1 51066U 22002CL  23290.45043617  .00028793  00000+0  89894-3 0  9999
2 51066  97.4276 359.2866 0006888 162.1705 197.9780 15.33134924 97536
FLOCK 4Y-24             
1 55020U 23001M   23291.42397509  .00011764  00000+0  53612-3 0  9992
2 55020  97.4619 349.8909 0008926 307.4158  52.6264 15.20781371 43798
FLOCK 4Y-32             
1 55021U 23001N   23291.14703216  .00010375  00000+0  47101-3 0  9991
2 55021  97.4615 349.6350 0009021 304.1910  55.8470 15.20944009 43759
FLOCK 4Y-22             
1 55022U 23001P   23291.08870496  .00012993  00000+0  59166-3 0  9992
2 55022  97.4625 349.5813 0009184 297.6389  62.3913 15.20780283 43746
FLOCK 4Y-18             
1 55023U 23001Q   23291.14591082  .00010744  00000+0  48804-3 0  9990
2 55023  97.4682 349.7737 0007698 299.1637  60.8828 15.20925467 43752
FLOCK 4Y-14             
1 55024U 23001R   23291.08410266  .00011307  00000+0  51582-3 0  9991
2 55024  97.4638 349.6601 0009285 310.0121  50.0299 15.20753063 43741
FLOCK 4Y-30             
1 55025U 23001S   23291.40511358  .00012132  00000+0  55052-3 0  9995
2 55025  97.4653 350.0433 0009184 306.7565  53.2826 15.20918689 43793
FLOCK 4Y-19             
1 55026U 23001T   23291.08118143  .00012148  00000+0  55247-3 0  9998
2 55026  97.4617 349.5594 0009506 299.1890  60.8394 15.20840320 43744
FLOCK 4Y-25             
1 55027U 23001U   23291.47192474  .00011374  00000+0  51773-3 0  9991
2 55027  97.4600 349.9312 0009122 302.9777  57.0581 15.20829279 43803
FLOCK 4Y-5              
1 55028U 23001V   23291.12969597  .00012113  00000+0  55068-3 0  9995
2 55028  97.4626 349.6856 0009753 296.9421  63.0818 15.20848782 43754
FLOCK 4Y-10             
1 55029U 23001W   23291.13600192  .00011789  00000+0  53586-3 0  9991
2 55029  97.4647 349.7713 0009246 302.0480  57.9857 15.20865867 43750
FLOCK 4Y-29             
1 55030U 23001X   23291.40116493  .00010780  00000+0  49021-3 0  9998
2 55030  97.4609 349.8781 0009555 301.1443  58.8855 15.20874114 43795
FLOCK 4Y-17             
1 55031U 23001Y   23291.47349953  .00009713  00000+0  44116-3 0  9999
2 55031  97.4654 350.1098 0009299 303.9624  56.0727 15.20946922 43805
FLOCK 4Y-7              
1 55032U 23001Z   23291.45061095  .00011930  00000+0  54227-3 0  9994
2 55032  97.4621 350.0057 0009858 296.8303  63.1924 15.20857874 43804
FLOCK 4Y-28             
1 55033U 23001AA  23291.08925956  .00016666  00000+0  67674-3 0  9990
2 55033  97.4588 350.2249 0007571 300.3136  59.7352 15.24632999 43794
FLOCK 4Y-3              
1 55035U 23001AC  23291.11799105  .00014243  00000+0  64550-3 0  9990
2 55035  97.4615 349.6623 0012441 303.6909  56.3139 15.20891128 43750
FLOCK 4Y-1              
1 55039U 23001AG  23291.12966003  .00020194  00000+0  87868-3 0  9997
2 55039  97.4620 349.7958 0009085 297.7018  62.3295 15.22241245 43768
FLOCK 4Y-16             
1 55040U 23001AH  23291.44898488  .00012247  00000+0  55434-3 0  9999
2 55040  97.4660 350.1674 0009748 306.0976  53.9356 15.20996756 43809
FLOCK 4Y-33             
1 55042U 23001AK  23291.12540133  .00012408  00000+0  56357-3 0  9991
2 55042  97.4610 349.6207 0009815 300.2321  59.7942 15.20875713 43754
FLOCK 4Y-11             
1 55043U 23001AL  23291.40194126  .00011092  00000+0  51595-3 0  9997
2 55043  97.4655 349.8999 0009626 299.2925  60.7348 15.20084935 43784
FLOCK 4Y-4              
1 55055U 23001AY  23291.43986879  .00012161  00000+0  54971-3 0  9996
2 55055  97.4633 350.0648 0011521 301.3360  58.6748 15.21029431 43807
FLOCK 4Y-35             
1 55057U 23001BA  23291.11943201  .00014436  00000+0  65314-3 0  9995
2 55057  97.4645 349.7828 0010785 308.7931  51.2341 15.20963781 43759
FLOCK 4Y-20             
1 55063U 23001BG  23291.12091074  .00013592  00000+0  61909-3 0  9993
2 55063  97.4664 349.8445 0012425 307.7271  52.2837 15.20730906 43754
FLOCK 4Y-12             
1 55065U 23001BJ  23291.12176232  .00013469  00000+0  61212-3 0  9995
2 55065  97.4670 349.8748 0012014 306.7824  53.2309 15.20813305 43756
FLOCK 4Y-6              
1 55066U 23001BK  23291.11665675  .00014261  00000+0  64544-3 0  9991
2 55066  97.4661 349.8285 0011967 308.8089  51.2077 15.20943940 43754
FLOCK 4Y-15             
1 55068U 23001BM  23291.10688970  .00014455  00000+0  65538-3 0  9994
2 55068  97.4605 349.6491 0012727 301.8181  58.1814 15.20869100 43752
FLOCK 4Y-9              
1 55069U 23001BN  23291.44374229  .00013157  00000+0  59828-3 0  9994
2 55069  97.4648 350.1152 0012171 309.9472  50.0693 15.20797624 43809
FLOCK 4Y-26             
1 55070U 23001BP  23291.43124704  .00010590  00000+0  48033-3 0  9990
2 55070  97.4624 350.0044 0012518 298.9877  61.0103 15.20938285 43803
FLOCK 4Y-8              
1 55071U 23001BQ  23291.08787699  .00012784  00000+0  57235-3 0  9991
2 55071  97.4626 349.7289 0012799 305.3693  54.6346 15.21332912 43759
FLOCK 4Y-2              
1 55074U 23001BT  23291.44458474  .00012371  00000+0  56434-3 0  9992
2 55074  97.4648 350.1298 0012544 306.9961  53.0126 15.20700127 43806
FLOCK 4Y-31             
1 55075U 23001BU  23291.12575022  .00033213  00000+0  13569-2 0  9996
2 55075  97.4597 349.9443 0012170 298.3323  61.6687 15.24240176 43779
FLOCK 4Y-21             
1 55077U 23001BW  23291.43913283  .00012820  00000+0  58293-3 0  9992
2 55077  97.4654 350.1610 0012596 305.8036  54.2028 15.20801633 43800
FLOCK 4Y-36             
1 55078U 23001BX  23291.42291889  .00012340  00000+0  55737-3 0  9990
2 55078  97.4630 350.0772 0012571 306.2252  53.7821 15.21039063 43807
FLOCK 4Y-13             
1 55079U 23001BY  23291.44442572  .00012577  00000+0  57278-3 0  9994
2 55079  97.4646 350.1183 0012909 305.0512  54.9512 15.20747570 43801
FLOCK 4Y-23             
1 55080U 23001BZ  23291.42477977  .00011863  00000+0  53859-3 0  9999
2 55080  97.4623 350.0429 0012940 301.5112  58.4859 15.20869696 43809
FLOCK 4Y-34             
1 55082U 23001CB  23291.15616314  .00011220  00000+0  50968-3 0  9996
2 55082  97.4630 349.8198 0012780 301.8934  58.1058 15.20865676 43762
FLOCK 4Y-27             
1 55083U 23001CC  23291.45250179  .00013040  00000+0  58467-3 0  9997
2 55083  97.4632 350.1831 0013200 302.2815  57.7141 15.21272028 43813
